ONEWEB-0412             
1 50489U 21132W   26063.77426212  .00000024  00000+0  28740-4 0  9993
2 50489  87.9250 356.1936 0001504  82.0413 278.0890 13.18685890207899
ONEWEB-0413             
1 50490U 21132X   26063.77921648  .00000035  00000+0  55759-4 0  9990
2 50490  87.9242 356.1973 0001606  87.8219 272.3097 13.18685853207832
ONEWEB-0414             
1 50491U 21132Y   26063.76435509  .00000039  00000+0  65597-4 0  9991
2 50491  87.9252 356.1715 0001597  77.3027 282.8284 13.18687575207868
ONEWEB-0417             
1 50492U 21132Z   26063.77259597  .00000886  00000+0  22135-2 0  9993
2 50492  87.9240 356.1981 0001950  72.9036 287.2310 13.18695064207844
ONEWEB-0418             
1 50493U 21132AA  26064.08587141  .00000012  00000+0 -29570-5 0  9993
2 50493  87.9252 356.1258 0001896  66.9276 293.2056 13.18684270207945
ONEWEB-0419             
1 50494U 21132AB  26063.80066105  .00000002  00000+0 -28326-4 0  9991
2 50494  87.9251 356.1825 0002091  75.1150 285.0214 13.18686151207828
ONEWEB-0420             
1 50495U 21132AC  26063.31075871  .00000034  00000+0  53512-4 0  9997
2 50495  87.9245 356.2913 0001811  84.0539 276.0800 13.18685787207757
ONEWEB-0421             
1 50496U 21132AD  26064.06292385 -.00000010  00000+0 -58177-4 0  9990
2 50496  87.9252 356.1342 0001501  77.1652 282.9648 13.18685568207894
ONEWEB-0424             
1 50497U 21132AE  26063.79571125  .00000021  00000+0  20947-4 0  9996
2 50497  87.9250 356.1831 0002174  78.1432 281.9944 13.18686065207880
ONEWEB-0426             
1 50498U 21132AF  26063.75611549  .00000054  00000+0  10486-3 0  9990
2 50498  87.9252 356.1823 0001422  58.4453 301.6818 13.18686075207828
ONEWEB-0427             
1 50499U 21132AG  26064.09756701 -.00000028  00000+0 -10369-3 0  9992
2 50499  87.9253 356.1015 0001851  70.3224 289.8108 13.18688203207899
ONEWEB-0429             
1 50500U 21132AH  26064.08436762  .00000092  00000+0  20011-3 0  9990
2 50500  87.9248 356.1367 0001807  83.4073 276.7265 13.18685632207863
ONEWEB-0430             
1 50501U 21132AJ  26064.07282222  .00000069  00000+0  14303-3 0  9991
2 50501  87.9252 356.1359 0002041  82.7058 277.4306 13.18686596207905
ONEWEB-0432             
1 50502U 21132AK  26062.05689732  .00028649  00000+0  72213-1 0  9991
2 50502  87.9250 356.5037 0001397  75.8425 284.2863 13.18867508207598
ONEWEB-0440             
1 50503U 21132AL  26064.09261517  .00000002  00000+0 -27542-4 0  9997
2 50503  87.9253 356.1213 0001461  86.5226 273.6073 13.18685927207851
ONEWEB-0450             
1 50504U 21132AM  26063.78265124  .00000006  00000+0 -16617-4 0  9996
2 50504  87.9241 356.1989 0001905  87.6021 272.5329 13.18685133207847
ONEWEB-0410             
1 51622U 22012A   26064.18474146  .00000028  00000+0  38924-4 0  9995
2 51622  87.9151  26.5001 0001970  40.0047 320.1230 13.17649297200007
