[{"OBJECT_NAME":"ONEWEB-0412","OBJECT_ID":"2021-132W","EPOCH":"2026-03-04T18:34:56.247168","MEAN_MOTION":13.1868589,"ECCENTRICITY":0.0001504,"INCLINATION":87.925,"RA_OF_ASC_NODE":356.1936,"ARG_OF_PERICENTER":82.0413,"MEAN_ANOMALY":278.089,"EPHEMERIS_TYPE":0,"CLASSIFICATION_TYPE":"U","NORAD_CAT_ID":50489,"ELEMENT_SET_NO":999,"REV_AT_EPOCH":20789,"BSTAR":2.874e-5,"MEAN_MOTION_DOT":2.4e-7,"MEAN_MOTION_DDOT":0},{"OBJECT_NAME":"ONEWEB-0413","OBJECT_ID":"2021-132X","EPOCH":"2026-03-04T18:42:04.303872","MEAN_MOTION":13.18685853,"ECCENTRICITY":0.0001606,"INCLINATION":87.9242,"RA_OF_ASC_NODE":356.1973,"ARG_OF_PERICENTER":87.8219,"MEAN_ANOMALY":272.3097,"EPHEMERIS_TYPE":0,"CLASSIFICATION_TYPE":"U","NORAD_CAT_ID":50490,"ELEMENT_SET_NO":999,"REV_AT_EPOCH":20783,"BSTAR":5.5759e-5,"MEAN_MOTION_DOT":3.5e-7,"MEAN_MOTION_DDOT":0},{"OBJECT_NAME":"ONEWEB-0414","OBJECT_ID":"2021-132Y","EPOCH":"2026-03-04T18:20:40.279776","MEAN_MOTION":13.18687575,"ECCENTRICITY":0.0001597,"INCLINATION":87.9252,"RA_OF_ASC_NODE":356.1715,"ARG_OF_PERICENTER":77.3027,"MEAN_ANOMALY":282.8284,"EPHEMERIS_TYPE":0,"CLASSIFICATION_TYPE":"U","NORAD_CAT_ID":50491,"ELEMENT_SET_NO":999,"REV_AT_EPOCH":20786,"BSTAR":6.5597e-5,"MEAN_MOTION_DOT":3.9e-7,"MEAN_MOTION_DDOT":0},{"OBJECT_NAME":"ONEWEB-0417","OBJECT_ID":"2021-132Z","EPOCH":"2026-03-04T18:32:32.291808","MEAN_MOTION":13.18695064,"ECCENTRICITY":0.000195,"INCLINATION":87.924,"RA_OF_ASC_NODE":356.1981,"ARG_OF_PERICENTER":72.9036,"MEAN_ANOMALY":287.231,"EPHEMERIS_TYPE":0,"CLASSIFICATION_TYPE":"U","NORAD_CAT_ID":50492,"ELEMENT_SET_NO":999,"REV_AT_EPOCH":20784,"BSTAR":0.0022135,"MEAN_MOTION_DOT":8.86e-6,"MEAN_MOTION_DDOT":0},{"OBJECT_NAME":"ONEWEB-0418","OBJECT_ID":"2021-132AA","EPOCH":"2026-03-05T02:03:39.289824","MEAN_MOTION":13.1868427,"ECCENTRICITY":0.0001896,"INCLINATION":87.9252,"RA_OF_ASC_NODE":356.1258,"ARG_OF_PERICENTER":66.9276,"MEAN_ANOMALY":293.2056,"EPHEMERIS_TYPE":0,"CLASSIFICATION_TYPE":"U","NORAD_CAT_ID":50493,"ELEMENT_SET_NO":999,"REV_AT_EPOCH":20794,"BSTAR":-2.957e-6,"MEAN_MOTION_DOT":1.2e-7,"MEAN_MOTION_DDOT":0},{"OBJECT_NAME":"ONEWEB-0419","OBJECT_ID":"2021-132AB","EPOCH":"2026-03-04T19:12:57.114720","MEAN_MOTION":13.18686151,"ECCENTRICITY":0.0002091,"INCLINATION":87.9251,"RA_OF_ASC_NODE":356.1825,"ARG_OF_PERICENTER":75.115,"MEAN_ANOMALY":285.0214,"EPHEMERIS_TYPE":0,"CLASSIFICATION_TYPE":"U","NORAD_CAT_ID":50494,"ELEMENT_SET_NO":999,"REV_AT_EPOCH":20782,"BSTAR":-2.8326e-5,"MEAN_MOTION_DOT":2.0e-8,"MEAN_MOTION_DDOT":0},{"OBJECT_NAME":"ONEWEB-0420","OBJECT_ID":"2021-132AC","EPOCH":"2026-03-04T07:27:29.552544","MEAN_MOTION":13.18685787,"ECCENTRICITY":0.00018111,"INCLINATION":87.9245,"RA_OF_ASC_NODE":356.2913,"ARG_OF_PERICENTER":84.0539,"MEAN_ANOMALY":276.08,"EPHEMERIS_TYPE":0,"CLASSIFICATION_TYPE":"U","NORAD_CAT_ID":50495,"ELEMENT_SET_NO":999,"REV_AT_EPOCH":20775,"BSTAR":5.3511623e-5,"MEAN_MOTION_DOT":3.4e-7,"MEAN_MOTION_DDOT":0},{"OBJECT_NAME":"ONEWEB-0421","OBJECT_ID":"2021-132AD","EPOCH":"2026-03-05T01:30:36.620640","MEAN_MOTION":13.18685568,"ECCENTRICITY":0.0001501,"INCLINATION":87.9252,"RA_OF_ASC_NODE":356.1342,"ARG_OF_PERICENTER":77.1652,"MEAN_ANOMALY":282.9648,"EPHEMERIS_TYPE":0,"CLASSIFICATION_TYPE":"U","NORAD_CAT_ID":50496,"ELEMENT_SET_NO":999,"REV_AT_EPOCH":20789,"BSTAR":-5.8177e-5,"MEAN_MOTION_DOT":-1.0e-7,"MEAN_MOTION_DDOT":0},{"OBJECT_NAME":"ONEWEB-0424","OBJECT_ID":"2021-132AE","EPOCH":"2026-03-04T19:05:49.452000","MEAN_MOTION":13.18686065,"ECCENTRICITY":0.0002174,"INCLINATION":87.925,"RA_OF_ASC_NODE":356.1831,"ARG_OF_PERICENTER":78.1432,"MEAN_ANOMALY":281.9944,"EPHEMERIS_TYPE":0,"CLASSIFICATION_TYPE":"U","NORAD_CAT_ID":50497,"ELEMENT_SET_NO":999,"REV_AT_EPOCH":20788,"BSTAR":2.0947e-5,"MEAN_MOTION_DOT":2.1e-7,"MEAN_MOTION_DDOT":0},{"OBJECT_NAME":"ONEWEB-0426","OBJECT_ID":"2021-132AF","EPOCH":"2026-03-04T18:08:48.378336","MEAN_MOTION":13.18686075,"ECCENTRICITY":0.0001422,"INCLINATION":87.9252,"RA_OF_ASC_NODE":356.1823,"ARG_OF_PERICENTER":58.4453,"MEAN_ANOMALY":301.6818,"EPHEMERIS_TYPE":0,"CLASSIFICATION_TYPE":"U","NORAD_CAT_ID":50498,"ELEMENT_SET_NO":999,"REV_AT_EPOCH":20782,"BSTAR":0.00010486,"MEAN_MOTION_DOT":5.4e-7,"MEAN_MOTION_DDOT":0},{"OBJECT_NAME":"ONEWEB-0427","OBJECT_ID":"2021-132AG","EPOCH":"2026-03-05T02:20:29.789664","MEAN_MOTION":13.18688203,"ECCENTRICITY":0.0001851,"INCLINATION":87.9253,"RA_OF_ASC_NODE":356.1015,"ARG_OF_PERICENTER":70.3224,"MEAN_ANOMALY":289.8108,"EPHEMERIS_TYPE":0,"CLASSIFICATION_TYPE":"U","NORAD_CAT_ID":50499,"ELEMENT_SET_NO":999,"REV_AT_EPOCH":20789,"BSTAR":-0.00010369,"MEAN_MOTION_DOT":-2.8e-7,"MEAN_MOTION_DDOT":0},{"OBJECT_NAME":"ONEWEB-0429","OBJECT_ID":"2021-132AH","EPOCH":"2026-03-05T02:01:29.362368","MEAN_MOTION":13.18685632,"ECCENTRICITY":0.0001807,"INCLINATION":87.9248,"RA_OF_ASC_NODE":356.1367,"ARG_OF_PERICENTER":83.4073,"MEAN_ANOMALY":276.7265,"EPHEMERIS_TYPE":0,"CLASSIFICATION_TYPE":"U","NORAD_CAT_ID":50500,"ELEMENT_SET_NO":999,"REV_AT_EPOCH":20786,"BSTAR":0.00020011,"MEAN_MOTION_DOT":9.2e-7,"MEAN_MOTION_DDOT":0},{"OBJECT_NAME":"ONEWEB-0430","OBJECT_ID":"2021-132AJ","EPOCH":"2026-03-05T01:44:51.839808","MEAN_MOTION":13.18686596,"ECCENTRICITY":0.0002041,"INCLINATION":87.9252,"RA_OF_ASC_NODE":356.1359,"ARG_OF_PERICENTER":82.7058,"MEAN_ANOMALY":277.4306,"EPHEMERIS_TYPE":0,"CLASSIFICATION_TYPE":"U","NORAD_CAT_ID":50501,"ELEMENT_SET_NO":999,"REV_AT_EPOCH":20790,"BSTAR":0.00014303,"MEAN_MOTION_DOT":6.9e-7,"MEAN_MOTION_DDOT":0},{"OBJECT_NAME":"ONEWEB-0432","OBJECT_ID":"2021-132AK","EPOCH":"2026-03-03T01:21:55.928448","MEAN_MOTION":13.18867508,"ECCENTRICITY":0.00013976,"INCLINATION":87.925,"RA_OF_ASC_NODE":356.5037,"ARG_OF_PERICENTER":75.8425,"MEAN_ANOMALY":284.2863,"EPHEMERIS_TYPE":0,"CLASSIFICATION_TYPE":"U","NORAD_CAT_ID":50502,"ELEMENT_SET_NO":999,"REV_AT_EPOCH":20759,"BSTAR":0.072213206,"MEAN_MOTION_DOT":0.00028649,"MEAN_MOTION_DDOT":0},{"OBJECT_NAME":"ONEWEB-0440","OBJECT_ID":"2021-132AL","EPOCH":"2026-03-05T02:13:21.950688","MEAN_MOTION":13.18685927,"ECCENTRICITY":0.0001461,"INCLINATION":87.9253,"RA_OF_ASC_NODE":356.1213,"ARG_OF_PERICENTER":86.5226,"MEAN_ANOMALY":273.6073,"EPHEMERIS_TYPE":0,"CLASSIFICATION_TYPE":"U","NORAD_CAT_ID":50503,"ELEMENT_SET_NO":999,"REV_AT_EPOCH":20785,"BSTAR":-2.7542e-5,"MEAN_MOTION_DOT":2.0e-8,"MEAN_MOTION_DDOT":0},{"OBJECT_NAME":"ONEWEB-0450","OBJECT_ID":"2021-132AM","EPOCH":"2026-03-04T18:47:01.067136","MEAN_MOTION":13.18685133,"ECCENTRICITY":0.0001905,"INCLINATION":87.9241,"RA_OF_ASC_NODE":356.1989,"ARG_OF_PERICENTER":87.6021,"MEAN_ANOMALY":272.5329,"EPHEMERIS_TYPE":0,"CLASSIFICATION_TYPE":"U","NORAD_CAT_ID":50504,"ELEMENT_SET_NO":999,"REV_AT_EPOCH":20784,"BSTAR":-1.6617e-5,"MEAN_MOTION_DOT":6.0e-8,"MEAN_MOTION_DDOT":0},{"OBJECT_NAME":"ONEWEB-0410","OBJECT_ID":"2022-012A","EPOCH":"2026-03-05T04:26:01.662144","MEAN_MOTION":13.17649297,"ECCENTRICITY":0.000197,"INCLINATION":87.9151,"RA_OF_ASC_NODE":26.5001,"ARG_OF_PERICENTER":40.0047,"MEAN_ANOMALY":320.123,"EPHEMERIS_TYPE":0,"CLASSIFICATION_TYPE":"U","NORAD_CAT_ID":51622,"ELEMENT_SET_NO":999,"REV_AT_EPOCH":20000,"BSTAR":3.8924e-5,"MEAN_MOTION_DOT":2.8e-7,"MEAN_MOTION_DDOT":0}]
